NORAD_CAT_ID,OBJECT_NAME,OBJECT_TYPE,EPOCH,MEAN_MOTION,ECCENTRICITY,INCLINATION,RA_OF_ASC_NODE,ARG_OF_PERICENTER,MEAN_ANOMALY,BSTAR,MEAN_MOTION_DOT,MEAN_MOTION_DDOT,TLE_LINE0,TLE_LINE1,TLE_LINE2,SEMIMAJOR_AXIS,PERIOD,APOGEE,PERIGEE,DECAYED
53823.0,STARLINK-4748,PAYLOAD,2022-10-03 22:00:00,15.89159075,0.0017524,53.2131,184.0874,94.7767,82.3907,0.00060548,0.00177028,2.2345e-05,0 STARLINK-4748,1 53823U 22114F   22276.91667824  .00177028  22345-4  60548-3 0  9994,2 53823  53.2131 184.0874 0017524  94.7767  82.3907 15.89159075  1302,6682.776,90.614,316.3520000000001,292.93,0.0
53823.0,STARLINK-4748,PAYLOAD,2022-10-04 14:00:01,15.89403586,0.0017246,53.2127,180.7079,97.9354,295.7596,0.00086057,0.00256122,3.4877e-05,0 STARLINK-4748,1 53823U 22114F   22277.58334491  .00256122  34877-4  86057-3 0  9998,2 53823  53.2127 180.7079 0017246  97.9354 295.7596 15.89403586  1308,6682.090999999999,90.6,315.48,292.432,0.0
53823.0,STARLINK-4748,PAYLOAD,2022-10-04 16:00:00,15.89448192,0.0017221,53.2128,180.2853,98.4063,52.3956,0.00083603,0.00249285,3.3621e-05,0 STARLINK-4748,1 53823U 22114F   22277.66667824  .00249285  33621-4  83603-3 0  9998,2 53823  53.2128 180.2853 0017221  98.4063  52.3956 15.89448192  3042,6681.965999999999,90.597,315.338,292.324,0.0
53823.0,STARLINK-4748,PAYLOAD,2022-10-04 22:00:00,15.88436113,0.0011520999999999,53.2173,179.03,95.5348,45.5776,-0.0046072,-0.01310824,0.00048372,0 STARLINK-4748,1 53823U 22114F   22277.91667824 -.01310824  48372-3 -46072-2 0  9993,2 53823  53.2173 179.0300 0011521  95.5348  45.5776 15.88436113  3083,6684.804,90.655,314.37,298.967,0.0
53823.0,STARLINK-4748,PAYLOAD,2022-10-05 14:00:01,15.86729779,0.0003798,53.2173,175.6585,138.5735,214.9947,-0.0052657,-0.01223761,0.0,0 STARLINK-4748,1 53823U 22114F   22278.58335648 -.01223761  00000-0 -52657-2 0  9995,2 53823  53.2173 175.6585 0003798 138.5735 214.9947 15.86729779  3190,6689.596,90.753,314.001,308.92,0.0
53823.0,STARLINK-4748,PAYLOAD,2022-10-05 22:00:00,15.85834893,0.0002703999999999,53.2171,173.9774,209.7947,248.3529,-0.0052828999999999,-0.01179114,0.0,0 STARLINK-4748,1 53823U 22114F   22278.91667824 -.01179114  00000-0 -52829-2 0  9999,2 53823  53.2171 173.9774 0002704 209.7947 248.3529 15.85834893  1302,6692.111999999999,90.804,315.786,312.1670000000001,0.0
53823.0,STARLINK-4748,PAYLOAD,2022-10-06 06:00:00,15.84984318,0.0004741,53.2167,172.2989,252.2056,309.5279,-0.0056507,-0.01208092,0.0,0 STARLINK-4748,1 53823U 22114F   22279.25001157 -.01208092  00000-0 -56507-2 0  9993,2 53823  53.2167 172.2989 0004741 252.2056 309.5279 15.84984318  3305,6694.505999999999,90.853,319.545,313.197,0.0
53823.0,STARLINK-4748,PAYLOAD,2022-10-06 14:00:01,15.84114337,0.000684,53.2172,170.6201,263.8327,40.4521,-0.0058721,-0.01206063,0.0,0 STARLINK-4748,1 53823U 22114F   22279.58334491 -.01206063  00000-0 -58721-2 0  9995,2 53823  53.2172 170.6201 0006840 263.8327  40.4521 15.84114337  1306,6696.956999999999,90.903,323.402,314.241,0.0
53823.0,STARLINK-4748,PAYLOAD,2022-10-06 22:42:55,15.83159326,0.0005297999999999,53.2174,168.797,269.6894,306.0007,-0.0060653999999999,-0.01190206,0.0,0 STARLINK-4748,1 53823U 22114F   22279.94646991 -.01190206  00000-0 -60654-2 0  9995,2 53823  53.2174 168.7970 0005298 269.6894 306.0007 15.83159326  1304,6699.65,90.957,325.064,317.965,0.0
53823.0,STARLINK-4748,PAYLOAD,2022-10-07 00:00:00,15.83037221,0.0004803,53.2174,168.5284,271.3279,249.6731,-0.0062654,-0.01218337,0.0,0 STARLINK-4748,1 53823U 22114F   22280.00001157 -.01218337  00000-0 -62654-2 0  9991,2 53823  53.2174 168.5284 0004803 271.3279 249.6731 15.83037221  3428,6699.994000000002,90.964,325.077,318.641,0.0
53823.0,STARLINK-4748,PAYLOAD,2022-10-07 14:00:01,15.81503053,0.0006143,53.2171,165.5999,270.7827,334.8961,-0.0065831,-0.01194653,0.0,0 STARLINK-4748,1 53823U 22114F   22280.58334491 -.01194653  00000-0 -65831-2 0  9998,2 53823  53.2171 165.5999 0006143 270.7827 334.8961 15.81503053  1302,6704.326,91.053,330.31,322.073,0.0
53823.0,STARLINK-4748,PAYLOAD,2022-10-07 22:00:00,15.80610556,0.0001535,53.217,163.9321,27.3953,316.6714,-0.0066513999999999,-0.01158434,0.0,0 STARLINK-4748,1 53823U 22114F   22280.91667824 -.01158434  00000-0 -66514-2 0  9990,2 53823  53.2170 163.9321 0001535  27.3953 316.6714 15.80610556  3568,6706.85,91.104,329.744,327.685,0.0
53823.0,STARLINK-4748,PAYLOAD,2022-10-08 14:00:01,15.78903802,0.0001629999999999,53.2173,160.6004,36.3314,141.3475,-0.0074645,-0.01196939,0.0,0 STARLINK-4748,1 53823U 22114F   22281.58334491 -.01196939  00000-0 -74645-2 0  9991,2 53823  53.2173 160.6004 0001630  36.3314 141.3475 15.78903802  1303,6711.682,91.203,334.641,332.4530000000001,0.0
53823.0,STARLINK-4748,PAYLOAD,2022-10-08 22:00:00,15.77865686,0.0001348,53.218,158.9397,29.3917,243.6128,-0.006144,-0.00947724,0.0,0 STARLINK-4748,1 53823U 22114F   22281.91667824 -.00947724  00000-0 -61440-2 0  9991,2 53823  53.2180 158.9397 0001348  29.3917 243.6128 15.77865686  1300,6714.626,91.263,337.396,335.586,0.0
53823.0,STARLINK-4748,PAYLOAD,2022-10-09 06:00:00,15.76807307,0.0001799,53.2166,157.2781,21.8662,345.4384,-0.0045641,-0.00692311,0.0,0 STARLINK-4748,1 53823U 22114F   22282.25001157 -.00692311  00000-0 -45641-2 0  9994,2 53823  53.2166 157.2781 0001799  21.8662 345.4384 15.76807307  3770,6717.63,91.324,340.704,338.287,0.0
53823.0,STARLINK-4748,PAYLOAD,2022-10-09 14:00:01,15.76299215,0.0001331999999999,53.2175,155.6195,47.7099,52.5848,-0.0083792,-0.01194692,0.0,0 STARLINK-4748,1 53823U 22114F   22282.58334491 -.01194692  00000-0 -83792-2 0  9999,2 53823  53.2175 155.6195 0001332  47.7099  52.5848 15.76299215  1306,6719.074000000001,91.353,341.834,340.0440000000001,0.0
53823.0,STARLINK-4748,PAYLOAD,2022-10-09 22:00:00,15.75430014,0.0001449,53.2174,153.9655,48.7792,143.6336,-0.0086832,-0.01191636,0.0,0 STARLINK-4748,1 53823U 22114F   22282.91667824 -.01191636  00000-0 -86832-2 0  9998,2 53823  53.2174 153.9655 0001449  48.7792 143.6336 15.75430014  1304,6721.545,91.404,344.384,342.436,0.0
53823.0,STARLINK-4748,PAYLOAD,2022-10-10 08:00:01,15.74265719,0.0001207,53.2175,151.8975,40.2803,355.8308,-0.0075886,-0.01008593,0.0,0 STARLINK-4748,1 53823U 22114F   22283.33334491 -.01008593  00000-0 -75886-2 0  9992,2 53823  53.2175 151.8975 0001207  40.2803 355.8308 15.74265719  3944,6724.858,91.471,347.535,345.912,0.0
53823.0,STARLINK-4748,PAYLOAD,2022-10-10 14:00:01,15.73570285,0.0001095999999999,53.2174,150.6577,59.7093,313.8268,-0.0035819,-0.00483108,0.0,0 STARLINK-4748,1 53823U 22114F   22283.58334491 -.00483108  00000-0 -35819-2 0  9999,2 53823  53.2174 150.6577 0001096  59.7093 313.8268 15.73570285  3989,6726.84,91.512,349.44199999999995,347.967,0.0
53823.0,STARLINK-4748,PAYLOAD,2022-10-10 22:00:01,15.73205481,0.0001279,53.2175,149.0098,62.3728,40.3862,-1.368e-05,-2.54e-05,0.0,0 STARLINK-4748,1 53823U 22114F   22283.91668981 -.00002540  00000-0 -13680-4 0  9991,2 53823  53.2175 149.0098 0001279  62.3728  40.3862 15.73205481  1307,6727.88,91.533,350.605,348.884,0.0
53823.0,STARLINK-4748,PAYLOAD,2022-10-11 14:00:01,15.73203108,0.0001382,53.2175,145.7086,49.0167,231.5474,1.7265e-05,1.804e-05,0.0,0 STARLINK-4748,1 53823U 22114F   22284.58334491  .00001804  00000-0  17265-4 0  9994,2 53823  53.2175 145.7086 0001382  49.0167 231.5474 15.73203108  1308,6727.886,91.533,350.681,348.82199999999995,0.0
53823.0,STARLINK-4748,PAYLOAD,2022-10-11 22:00:00,15.7302949,0.0001198,53.2142,144.0507,49.0584,320.9349,0.00057716,0.00080568,0.0,0 STARLINK-4748,1 53823U 22114F   22284.91667824  .00080568  00000-0  57716-3 0  9998,2 53823  53.2142 144.0507 0001198  49.0584 320.9349 15.73029490  1304,6728.380999999999,91.543,351.052,349.44,0.0
53823.0,STARLINK-4748,PAYLOAD,2022-10-12 06:00:00,15.7312112,0.0001181,53.2153,142.404,45.5869,53.1178,-0.00042446,-0.00059568,0.0,0 STARLINK-4748,1 53823U 22114F   22285.25001157 -.00059568  00000-0 -42446-3 0  9999,2 53823  53.2153 142.4040 0001181  45.5869  53.1178 15.73121120  4243,6728.12,91.538,350.78,349.19,0.0
53823.0,STARLINK-4748,PAYLOAD,2022-10-12 14:00:01,15.72979771,9.46e-05,53.2164,140.756,45.1891,142.342,0.0019562,0.00280642,0.0,0 STARLINK-4748,1 53823U 22114F   22285.58334491  .00280642  00000-0  19562-2 0  9994,2 53823  53.2164 140.7560 0000946  45.1891 142.3420 15.72979771  1309,6728.523,91.546,351.025,349.75199999999984,0.0
53823.0,STARLINK-4748,PAYLOAD,2022-10-12 22:00:00,15.73206129,0.0001038,53.2174,139.1124,25.1948,251.1041,-2.3225e-05,-3.878e-05,0.0,0 STARLINK-4748,1 53823U 22114F   22285.91667824 -.00003878  00000-0 -23225-4 0  9999,2 53823  53.2174 139.1124 0001038  25.1948 251.1041 15.73206129  4359,6727.878000000002,91.533,350.441,349.0440000000001,0.0
53823.0,STARLINK-4748,PAYLOAD,2022-10-13 14:00:01,15.73190183,0.0001395999999999,53.217,135.809,58.6887,35.4887,0.00016772,0.00022973,0.0,0 STARLINK-4748,1 53823U 22114F   22286.58334491  .00022973  00000-0  16772-3 0  9997,2 53823  53.2170 135.8090 0001396  58.6887  35.4887 15.73190183  1305,6727.9230000000025,91.534,350.727,348.849,0.0
53823.0,STARLINK-4748,PAYLOAD,2022-10-13 22:00:00,15.73204653,0.0001464,53.2174,134.164,53.7471,129.355,-2.3579e-06,-9.51e-06,0.0,0 STARLINK-4748,1 53823U 22114F   22286.91667824 -.00000951  00000-0 -23579-5 0  9992,2 53823  53.2174 134.1640 0001464  53.7471 129.3550 15.73204653  1301,6727.882,91.533,350.732,348.76199999999994,0.0
53823.0,STARLINK-4748,PAYLOAD,2022-10-14 08:00:01,15.73242291,0.0001286999999999,53.2167,132.0967,50.5776,333.8369,-0.0014224,-0.00196018,0.0,0 STARLINK-4748,1 53823U 22114F   22287.33335648 -.00196018  00000-0 -14224-2 0  9999,2 53823  53.2167 132.0967 0001287  50.5776 333.8369 15.73242291  4570,6727.775,91.531,350.505,348.774,0.0
53823.0,STARLINK-4748,PAYLOAD,2022-10-14 14:00:01,15.73087331,0.0001375,53.217,130.861,51.5251,309.5063,0.0013235,0.00188438,0.0,0 STARLINK-4748,1 53823U 22114F   22287.58334491  .00188438  00000-0  13235-2 0  9997,2 53823  53.2170 130.8610 0001375  51.5251 309.5063 15.73087331  1314,6728.215999999999,91.54,351.00699999999995,349.156,0.0
